NORAD_CAT_ID,OBJECT_NAME,OBJECT_TYPE,EPOCH,MEAN_MOTION,ECCENTRICITY,INCLINATION,RA_OF_ASC_NODE,ARG_OF_PERICENTER,MEAN_ANOMALY,BSTAR,MEAN_MOTION_DOT,MEAN_MOTION_DDOT,TLE_LINE0,TLE_LINE1,TLE_LINE2,SEMIMAJOR_AXIS,PERIOD,APOGEE,PERIGEE,DECAYED
49181.0,STARLINK-3059,PAYLOAD,2023-12-03 20:18:00,14.98322356,0.0002802,69.9996,219.2223,264.3391,95.7448,-3.8536e-05,-5.53e-06,0.0,0 STARLINK-3059,1 49181U 21082BD  23337.84583961 -.00000553  00000-0 -38536-4 0  9992,2 49181  69.9996 219.2223 0002802 264.3391  95.7448 14.98322356123291,6950.217,96.107,574.029,570.134,0.0
49181.0,STARLINK-3059,PAYLOAD,2023-12-04 02:42:32,14.98326949,0.0002739,69.9995,218.5491,260.3849,99.7001,0.00022835,2.632e-05,0.0,0 STARLINK-3059,1 49181U 21082BD  23338.11287969  .00002632  00000-0  22835-3 0  9994,2 49181  69.9995 218.5491 0002739 260.3849  99.7001 14.98326949123350,6950.202,96.107,573.971,570.164,0.0
49181.0,STARLINK-3059,PAYLOAD,2023-12-04 15:31:37,14.98334559,0.0002591,69.9994,217.203,259.617,100.4697,0.00057739,6.804e-05,0.0,0 STARLINK-3059,1 49181U 21082BD  23338.64696042  .00006804  00000-0  57739-3 0  9994,2 49181  69.9994 217.2030 0002591 259.6170 100.4697 14.98334559123412,6950.179,96.107,573.845,570.243,0.0
49181.0,STARLINK-3059,PAYLOAD,2023-12-05 02:44:33,14.98345084,0.0002622,69.9994,216.0244,260.6518,99.4345,0.00066251,7.824e-05,0.0,0 STARLINK-3059,1 49181U 21082BD  23339.11427507  .00007824  00000-0  66251-3 0  9997,2 49181  69.9994 216.0244 0002622 260.6518  99.4345 14.98345084123501,6950.146,96.106,573.834,570.189,0.0
49181.0,STARLINK-3059,PAYLOAD,2023-12-06 01:10:26,14.98340654,0.0002064,70.0001,213.6689,259.4477,100.645,0.00020079,2.304e-05,0.0,0 STARLINK-3059,1 49181U 21082BD  23340.04891493  .00002304  00000-0  20079-3 0  9996,2 49181  70.0001 213.6689 0002064 259.4477 100.6450 14.98340654123622,6950.16,96.106,573.459,570.59,0.0
49181.0,STARLINK-3059,PAYLOAD,2023-12-06 22:00:11,14.98332833,0.0001263,70.0024,211.4811,258.0479,102.0539,8.3458e-05,9.03e-06,0.0,0 STARLINK-3059,1 49181U 21082BD  23340.91679734  .00000903  00000-0  83458-4 0  9998,2 49181  70.0024 211.4811 0001263 258.0479 102.0539 14.98332833123777,6950.184,96.107,572.927,571.171,0.0
49181.0,STARLINK-3059,PAYLOAD,2023-12-07 01:12:27,14.98330893,0.0001656,70.0011,211.1424,274.2311,85.8659,-2.4339e-05,-3.83e-06,0.0,0 STARLINK-3059,1 49181U 21082BD  23341.05031842 -.00000383  00000-0 -24339-4 0  9993,2 49181  70.0011 211.1424 0001656 274.2311  85.8659 14.98330893123776,6950.19,96.107,573.206,570.904,0.0
49181.0,STARLINK-3059,PAYLOAD,2023-12-08 01:14:28,14.98330371,0.0001963,70.0004,208.6177,274.1796,85.9139,9.9826e-05,1.098e-05,0.0,0 STARLINK-3059,1 49181U 21082BD  23342.05171780  .00001098  00000-0  99826-4 0  9995,2 49181  70.0004 208.6177 0001963 274.1796  85.9139 14.98330371123923,6950.192,96.107,573.421,570.692,0.0
49181.0,STARLINK-3059,PAYLOAD,2023-12-09 14:05:33,14.98336187,0.0002169,69.9971,204.7476,282.0447,78.0469,0.00010923,1.211e-05,0.0,0 STARLINK-3059,1 49181U 21082BD  23343.58719311  .00001211  00000-0  10923-3 0  9999,2 49181  69.9971 204.7476 0002169 282.0447  78.0469 14.98336187124170,6950.174,96.107,573.546,570.531,0.0
49181.0,STARLINK-3059,PAYLOAD,2023-12-10 14:07:34,14.98333882,0.0001687,69.9995,202.2221,288.0769,72.0206,3.2975e-05,3.01e-06,0.0,0 STARLINK-3059,1 49181U 21082BD  23344.58859208  .00000301  00000-0  32975-4 0  9991,2 49181  69.9995 202.2221 0001687 288.0769  72.0206 14.98333882124323,6950.181,96.107,573.218,570.873,0.0
49181.0,STARLINK-3059,PAYLOAD,2023-12-10 18:55:58,14.98333088,0.0002583,69.9978,201.7163,275.3953,84.6911,8.1461e-05,8.79e-06,0.0,0 STARLINK-3059,1 49181U 21082BD  23344.78886954  .00000879  00000-0  81461-4 0  9995,2 49181  69.9978 201.7163 0002583 275.3953  84.6911 14.98333088124334,6950.183,96.107,573.844,570.253,0.0
49181.0,STARLINK-3059,PAYLOAD,2023-12-10 22:08:14,14.98332562,0.0002459,69.9977,201.3796,270.7918,89.2959,6.0671e-05,6.31e-06,0.0,0 STARLINK-3059,1 49181U 21082BD  23344.92238959  .00000631  00000-0  60671-4 0  9993,2 49181  69.9977 201.3796 0002459 270.7918  89.2959 14.98332562124376,6950.185,96.107,573.759,570.341,0.0
49181.0,STARLINK-3059,PAYLOAD,2023-12-10 23:44:22,14.98332819,0.000246,69.9977,201.2112,270.7479,89.3399,6.1999e-05,6.47e-06,0.0,0 STARLINK-3059,1 49181U 21082BD  23344.98914926  .00000647  00000-0  61999-4 0  9995,2 49181  69.9977 201.2112 0002460 270.7479  89.3399 14.98332819124386,6950.184,96.107,573.759,570.339,0.0
49181.0,STARLINK-3059,PAYLOAD,2023-12-11 18:57:59,14.98333534,0.0002294,69.998,199.191,265.9119,94.1778,5.6369e-05,5.8e-06,0.0,0 STARLINK-3059,1 49181U 21082BD  23345.79026808  .00000580  00000-0  56369-4 0  9999,2 49181  69.9980 199.1910 0002294 265.9119  94.1778 14.98333534124484,6950.182,96.107,573.641,570.453,0.0
49181.0,STARLINK-3059,PAYLOAD,2023-12-11 22:10:15,14.98332179,0.0002312,69.998,198.8544,266.1252,93.9642,3.7008e-05,3.49e-06,0.0,0 STARLINK-3059,1 49181U 21082BD  23345.92378865  .00000349  00000-0  37008-4 0  9999,2 49181  69.9980 198.8544 0002312 266.1252  93.9642 14.98332179124521,6950.186,96.107,573.658,570.444,0.0
49181.0,STARLINK-3059,PAYLOAD,2023-12-11 23:46:23,14.98332365,0.0002315,69.998,198.6861,266.4944,93.595,3.7882e-05,3.59e-06,0.0,0 STARLINK-3059,1 49181U 21082BD  23345.99054841  .00000359  00000-0  37882-4 0  9992,2 49181  69.9980 198.6861 0002315 266.4944  93.5950 14.98332365124531,6950.186,96.107,573.66,570.442,0.0
49181.0,STARLINK-3059,PAYLOAD,2023-12-12 20:36:08,14.98330816,0.0002195,69.9984,196.4983,260.6985,99.3926,4.278e-05,4.18e-06,0.0,0 STARLINK-3059,1 49181U 21082BD  23346.85842916  .00000418  00000-0  42780-4 0  9995,2 49181  69.9984 196.4983 0002195 260.6985  99.3926 14.98330816124641,6950.19,96.107,573.581,570.53,0.0
49181.0,STARLINK-3059,PAYLOAD,2023-12-12 22:12:16,14.98329807,0.0002238,69.9983,196.3299,262.9362,97.1543,2.8595e-05,2.48e-06,0.0,0 STARLINK-3059,1 49181U 21082BD  23346.92519047  .00000248  00000-0  28595-4 0  9998,2 49181  69.9983 196.3299 0002238 262.9362  97.1543 14.98329807124673,6950.193,96.107,573.614,570.503,0.0
49181.0,STARLINK-3059,PAYLOAD,2023-12-12 23:48:24,14.98329828,0.0002244,69.9983,196.1615,263.5776,96.5128,2.7225e-05,2.32e-06,0.0,0 STARLINK-3059,1 49181U 21082BD  23346.99195050  .00000232  00000-0  27225-4 0  9991,2 49181  69.9983 196.1615 0002244 263.5776  96.5128 14.98329828124682,6950.193,96.107,573.618,570.499,0.0
49181.0,STARLINK-3059,PAYLOAD,2023-12-13 22:14:16,14.98334464,0.000229,69.9982,193.8041,267.2973,92.7924,8.2498e-05,8.92e-06,0.0,0 STARLINK-3059,1 49181U 21082BD  23347.92658495  .00000892  00000-0  82498-4 0  9997,2 49181  69.9982 193.8041 0002290 267.2973  92.7924 14.98334464124829,6950.179,96.107,573.636,570.452,0.0
49181.0,STARLINK-3059,PAYLOAD,2023-12-13 23:50:24,14.9833471,0.0002293,69.9982,193.6357,267.5643,92.5253,8.409e-05,9.11e-06,0.0,0 STARLINK-3059,1 49181U 21082BD  23347.99334464  .00000911  00000-0  84090-4 0  9993,2 49181  69.9982 193.6357 0002293 267.5643  92.5253 14.98334710124813,6950.178,96.107,573.637,570.45,0.0
49181.0,STARLINK-3059,PAYLOAD,2023-12-14 14:15:37,14.98330152,0.0002211,69.9985,192.121,262.3885,97.7023,7.0422e-05,7.47e-06,0.0,0 STARLINK-3059,1 49181U 21082BD  23348.59418762  .00000747  00000-0  70422-4 0  9995,2 49181  69.9985 192.1210 0002211 262.3885  97.7023 14.98330152124929,6950.192,96.107,573.594,570.521,0.0
49181.0,STARLINK-3059,PAYLOAD,2023-12-14 20:40:10,14.98330285,0.000225,69.9985,191.4477,261.6255,98.4649,5.9469e-05,6.17e-06,0.0,0 STARLINK-3059,1 49181U 21082BD  23348.86122768  .00000617  00000-0  59469-4 0  9997,2 49181  69.9985 191.4477 0002250 261.6255  98.4649 14.98330285124943,6950.192,96.107,573.621,570.493,0.0
49181.0,STARLINK-3059,PAYLOAD,2023-12-14 22:16:18,14.98331202,0.0002258,69.9985,191.2795,261.8604,98.2299,6.5775e-05,6.92e-06,0.0,0 STARLINK-3059,1 49181U 21082BD  23348.92798661  .00000692  00000-0  65775-4 0  9995,2 49181  69.9985 191.2795 0002258 261.8604  98.2299 14.98331202124974,6950.189,96.107,573.624,570.485,0.0
49181.0,STARLINK-3059,PAYLOAD,2023-12-15 14:17:38,14.98331785,0.0002089,69.9988,189.5956,262.1068,97.9854,1.9561e-05,1.41e-06,0.0,0 STARLINK-3059,1 49181U 21082BD  23349.59558750  .00000141  00000-0  19561-4 0  9993,2 49181  69.9988 189.5956 0002089 262.1068  97.9854 14.98331785125077,6950.187,96.107,573.504,570.6,0.0
49181.0,STARLINK-3059,PAYLOAD,2023-12-15 22:18:19,14.98330237,0.0002121,69.9988,188.7542,264.2966,95.7952,-5.4992e-06,-1.58e-06,0.0,0 STARLINK-3059,1 49181U 21082BD  23349.92938873 -.00000158  00000-0 -54992-5 0  9996,2 49181  69.9988 188.7542 0002121 264.2966  95.7952 14.98330237125128,6950.192,96.107,573.531,570.583,0.0
49181.0,STARLINK-3059,PAYLOAD,2023-12-15 23:54:27,14.9833064,0.0002125,69.9988,188.5859,264.4741,95.6176,-2.2984e-06,-1.2e-06,0.0,0 STARLINK-3059,1 49181U 21082BD  23349.99614834 -.00000120  00000-0 -22984-5 0  9996,2 49181  69.9988 188.5859 0002125 264.4741  95.6176 14.98330640125118,6950.191,96.107,573.533,570.579,0.0
49181.0,STARLINK-3059,PAYLOAD,2023-12-16 14:19:39,14.98331949,0.0002251,69.9987,187.0714,263.9265,96.1637,5.7216e-05,5.9e-06,0.0,0 STARLINK-3059,1 49181U 21082BD  23350.59698601  .00000590  00000-0  57216-4 0  9992,2 49181  69.9987 187.0714 0002251 263.9265  96.1637 14.98331949125229,6950.187,96.107,573.616,570.487,0.0
49181.0,STARLINK-3059,PAYLOAD,2023-12-16 22:20:19,14.98341616,0.0002266,69.9989,186.2299,271.9354,88.1546,-0.00011463,-1.461e-05,0.0,0 STARLINK-3059,1 49181U 21082BD  23350.93078310 -.00001461  00000-0 -11463-3 0  9992,2 49181  69.9989 186.2299 0002266 271.9354  88.1546 14.98341616125271,6950.157,96.106,573.597,570.447,0.0
49181.0,STARLINK-3059,PAYLOAD,2023-12-17 14:21:40,14.9832935,0.0002258,69.9989,184.5465,272.7866,87.3035,7.1597e-05,7.61e-06,0.0,0 STARLINK-3059,1 49181U 21082BD  23351.59838733  .00000761  00000-0  71597-4 0  9993,2 49181  69.9989 184.5465 0002258 272.7866  87.3035 14.98329350125371,6950.195,96.107,573.629,570.491,0.0
